25851,GLOBALSTAR M035,1999,130.37,-1.0,-,51.99,Inactive,0,MEO,USA,Globalstar,Unknown,Unknown,Unknown,1 25851U 99037A   24330.87073880  .00000017  00000+0  30443-2 0  9995,2 25851  51.9908 148.3792 0014013  18.4987  78.6521 11.04535113 73794,11.04535113,0.0014013,MEO
25852,GLOBALSTAR M032,1999,128.68,-1.0,-,52.0,Inactive,0,MEO,USA,Globalstar,Unknown,Unknown,Unknown,1 25852U 99037B   24331.47778478 -.00000145  00000+0 -25105-2 0  9991,2 25852  51.9979 346.2061 0010678 187.4334 172.6309 11.19054968112149,11.19054968,0.0010678,MEO
25853,GLOBALSTAR M051,1999,126.07,-1.0,-,51.98,Inactive,0,LEO,USA,Globalstar,Unknown,Unknown,Unknown,1 25853U 99037C   24330.84999012 -.00000039  00000+0  80648-3 0  9996,2 25853  51.9756 171.4176 0001092 143.2014 216.8872 11.42199235109159,11.42199235,0.0001092,LEO
25854,GLOBALSTAR M030,1999,124.66,-1.0,-,51.99,Inactive,0,LEO,USA,Globalstar,Unknown,Unknown,Unknown,1 25854U 99037D   24331.07324760 -.00000087  00000+0 -24978-3 0  9993,2 25854  51.9902 349.8989 0003877  44.7579 315.3550 11.55100033126676,11.55100033,0.0003877,LEO
25872,GLOBALSTAR M048,1999,127.0,-1.0,-,51.94,Inactive,0,LEO,USA,Globalstar,Unknown,Unknown,Unknown,1 25872U 99041A   24330.75869176 -.00000060  00000+0  25764-3 0  9991,2 25872  51.9355  98.8030 0013573 187.7980 321.4869 11.33852027101907,11.33852027,0.0013573,LEO
25873,GLOBALSTAR M026,1999,130.1,-1.0,-,52.0,Inactive,0,MEO,USA,Globalstar,Unknown,Unknown,Unknown,1 25873U 99041B   24330.14580282 -.00000133  00000+0 -25555-2 0  9992,2 25873  52.0013 270.0999 0001087 303.8055 155.0018 11.06826764125890,11.06826764,0.0001087,MEO
25874,GLOBALSTAR M043,1999,127.92,-1.0,-,51.94,Inactive,0,LEO,USA,Globalstar,Unknown,Unknown,Unknown,1 25874U 99041C   24330.64736685 -.00000042  00000+0  78680-3 0  9994,2 25874  51.9375 198.6048 0012806 329.5170  59.3705 11.25688002 99952,11.25688002,0.0012806,LEO
25875,GLOBALSTAR M028,1999,115.15,-1.0,-,51.96,Inactive,0,LEO,USA,Globalstar,Unknown,Unknown,Unknown,1 25875U 99041D   24330.42545466 -.00000082  00000+0  12137-3 0  9995,2 25875  51.9631  80.6405 0062881 349.4788  10.4754 12.50570402164687,12.50570402,0.0062881,LEO
